{
  "type": "FeatureCollection",
  "features": [
    {
      "type": "Feature",
      "geometry": {
        "type": "Polygon",
        "coordinates": [
          [
            [
              2.431476,
              47.060387
            ],
            [
              2.437892,
              47.057274
            ],
            [
              2.445639,
              47.053414
            ],
            [
              2.451432,
              47.050402
            ],
            [
              2.451797,
              47.050095
            ],
            [
              2.451003,
              47.048502
            ],
            [
              2.454372,
              47.046236
            ],
            [
              2.459764,
              47.044276
            ],
            [
              2.466537,
              47.041045
            ],
            [
              2.468669,
              47.039713
            ],
            [
              2.469463,
              47.03907
            ],
            [
              2.471094,
              47.037973
            ],
            [
              2.476515,
              47.034713
            ],
            [
              2.478275,
              47.035655
            ],
            [
              2.479332,
              47.035582
            ],
            [
              2.480959,
              47.036366
            ],
            [
              2.481491,
              47.035966
            ],
            [
              2.48248,
              47.035591
            ],
            [
              2.489247,
              47.032928
            ],
            [
              2.491303,
              47.032061
            ],
            [
              2.492502,
              47.031556
            ],
            [
              2.49768,
              47.029374
            ],
            [
              2.503946,
              47.026872
            ],
            [
              2.499118,
              47.024137
            ],
            [
              2.506284,
              47.02168
            ],
            [
              2.506006,
              47.021299
            ],
            [
              2.506113,
              47.021124
            ],
            [
              2.533314,
              47.011733
            ],
            [
              2.539944,
              47.009509
            ],
            [
              2.541489,
              47.009143
            ],
            [
              2.54224,
              47.009158
            ],
            [
              2.545101,
              47.009786
            ],
            [
              2.545981,
              47.009874
            ],
            [
              2.549672,
              47.009083
            ],
            [
              2.55377,
              47.007971
            ],
            [
              2.560358,
              47.015989
            ],
            [
              2.562861,
              47.019794
            ],
            [
              2.570371,
              47.018872
            ],
            [
              2.57173,
              47.01893
            ],
            [
              2.571902,
              47.018681
            ],
            [
              2.577567,
              47.017262
            ],
            [
              2.57849,
              47.016779
            ],
            [
              2.584318,
              47.014615
            ],
            [
              2.586214,
              47.014775
            ],
            [
              2.586829,
              47.013913
            ],
            [
              2.585935,
              47.01356
            ],
            [
              2.587322,
              47.009934
            ],
            [
              2.588424,
              47.011776
            ],
            [
              2.602343,
              47.00787
            ],
            [
              2.601806,
              47.004739
            ],
            [
              2.603767,
              47.004343
            ],
            [
              2.603652,
              47.00329
            ],
            [
              2.609496,
              47.002148
            ],
            [
              2.60956,
              47.001606
            ],
            [
              2.607779,
              46.999587
            ],
            [
              2.613594,
              46.99865
            ],
            [
              2.628443,
              46.993557
            ],
            [
              2.629229,
              46.995066
            ],
            [
              2.636768,
              46.995226
            ],
            [
              2.637898,
              46.993178
            ],
            [
              2.639207,
              46.992212
            ],
            [
              2.641446,
              46.991874
            ],
            [
              2.64563,
              46.991552
            ],
            [
              2.645988,
              46.99211
            ],
            [
              2.648391,
              46.991744
            ],
            [
              2.648305,
              46.991422
            ],
            [
              2.648935,
              46.991288
            ],
            [
              2.649107,
              46.991581
            ],
            [
              2.653992,
              46.989797
            ],
            [
              2.654979,
              46.9905
            ],
            [
              2.658848,
              46.987527
            ],
            [
              2.660179,
              46.987893
            ],
            [
              2.660758,
              46.987161
            ],
            [
              2.663655,
              46.986897
            ],
            [
              2.665007,
              46.987351
            ],
            [
              2.665694,
              46.9864
            ],
            [
              2.666015,
              46.986473
            ],
            [
              2.667088,
              46.98558
            ],
            [
              2.665994,
              46.984804
            ],
            [
              2.667946,
              46.983955
            ],
            [
              2.667796,
              46.983106
            ],
            [
              2.670178,
              46.982594
            ],
            [
              2.674792,
              46.979783
            ],
            [
              2.674684,
              46.979607
            ],
            [
              2.676401,
              46.979124
            ],
            [
              2.679934,
              46.97802
            ],
            [
              2.682724,
              46.97712
            ],
            [
              2.684473,
              46.9769
            ],
            [
              2.685213,
              46.97832
            ],
            [
              2.68684,
              46.978107
            ],
            [
              2.686829,
              46.977477
            ],
            [
              2.690735,
              46.976079
            ],
            [
              2.690016,
              46.975296
            ],
            [
              2.691958,
              46.974542
            ],
            [
              2.692848,
              46.9743
            ],
            [
              2.694672,
              46.973978
            ],
            [
              2.695402,
              46.974036
            ],
            [
              2.699826,
              46.973232
            ],
            [
              2.704654,
              46.970465
            ],
            [
              2.705276,
              46.970853
            ],
            [
              2.706617,
              46.970004
            ],
            [
              2.706424,
              46.969652
            ],
            [
              2.708312,
              46.968525
            ],
            [
              2.709049,
              46.968048
            ],
            [
              2.710351,
              46.967632
            ],
            [
              2.712142,
              46.966958
            ],
            [
              2.713784,
              46.966204
            ],
            [
              2.719209,
              46.96353
            ],
            [
              2.720071,
              46.963187
            ],
            [
              2.720929,
              46.963056
            ],
            [
              2.723665,
              46.962938
            ],
            [
              2.722571,
              46.963817
            ],
            [
              2.730263,
              46.963839
            ],
            [
              2.730757,
              46.963766
            ],
            [
              2.734544,
              46.963019
            ],
            [
              2.737784,
              46.962008
            ],
            [
              2.738825,
              46.96162
            ],
            [
              2.74007,
              46.961232
            ],
            [
              2.742086,
              46.960317
            ],
            [
              2.742215,
              46.960427
            ],
            [
              2.748488,
              46.957592
            ],
            [
              2.749572,
              46.957043
            ],
            [
              2.750934,
              46.956794
            ],
            [
              2.752157,
              46.95653
            ],
            [
              2.753198,
              46.9559
            ],
            [
              2.753799,
              46.955197
            ],
            [
              2.754174,
              46.95415
            ],
            [
              2.760011,
              46.952663
            ],
            [
              2.763144,
              46.951067
            ],
            [
              2.764313,
              46.949917
            ],
            [
              2.765289,
              46.950415
            ],
            [
              2.767821,
              46.94846
            ],
            [
              2.769731,
              46.949375
            ],
            [
              2.771984,
              46.950203
            ],
            [
              2.772027,
              46.949814
            ],
            [
              2.772918,
              46.949265
            ],
            [
              2.772982,
              46.949089
            ],
            [
              2.773207,
              46.948643
            ],
            [
              2.774098,
              46.948833
            ],
            [
              2.773926,
              46.947676
            ],
            [
              2.775857,
              46.94739
            ],
            [
              2.78105,
              46.947075
            ],
            [
              2.783807,
              46.946482
            ],
            [
              2.784515,
              46.946189
            ],
            [
              2.786296,
              46.945215
            ],
            [
              2.788614,
              46.944475
            ],
            [
              2.789988,
              46.947003
            ],
            [
              2.795399,
              46.957263
            ],
            [
              2.795675,
              46.957785
            ],
            [
              2.795909,
              46.958185
            ],
            [
              2.796506,
              46.959308
            ],
            [
              2.7993,
              46.964215
            ],
            [
              2.796789,
              46.964819
            ],
            [
              2.792068,
              46.966137
            ],
            [
              2.791586,
              46.966188
            ],
            [
              2.790663,
              46.966108
            ],
            [
              2.789622,
              46.966086
            ],
            [
              2.788978,
              46.966232
            ],
            [
              2.788163,
              46.966598
            ],
            [
              2.787584,
              46.967008
            ],
            [
              2.786064,
              46.967361
            ],
            [
              2.783929,
              46.968056
            ],
            [
              2.781622,
              46.968862
            ],
            [
              2.780095,
              46.969966
            ],
            [
              2.779187,
              46.970794
            ],
            [
              2.775632,
              46.972492
            ],
            [
              2.775503,
              46.973158
            ],
            [
              2.775246,
              46.973605
            ],
            [
              2.774988,
              46.973575
            ],
            [
              2.774216,
              46.973458
            ],
            [
              2.7734,
              46.973736
            ],
            [
              2.772263,
              46.974373
            ],
            [
              2.771415,
              46.974732
            ],
            [
              2.767542,
              46.975303
            ],
            [
              2.764624,
              46.976181
            ],
            [
              2.763648,
              46.976467
            ],
            [
              2.763068,
              46.976935
            ],
            [
              2.7603,
              46.97799
            ],
            [
              2.758434,
              46.978348
            ],
            [
              2.757039,
              46.978692
            ],
            [
              2.756331,
              46.979314
            ],
            [
              2.755569,
              46.980508
            ],
            [
              2.753406,
              46.980414
            ],
            [
              2.753373,
              46.981519
            ],
            [
              2.752483,
              46.981694
            ],
            [
              2.751571,
              46.982075
            ],
            [
              2.750419,
              46.982279
            ],
            [
              2.748209,
              46.982059
            ],
            [
              2.747848,
              46.982053
            ],
            [
              2.744186,
              46.98405
            ],
            [
              2.743932,
              46.984088
            ],
            [
              2.743835,
              46.984337
            ],
            [
              2.743385,
              46.985156
            ],
            [
              2.743406,
              46.985427
            ],
            [
              2.743996,
              46.986262
            ],
            [
              2.74287,
              46.986584
            ],
            [
              2.742462,
              46.98684
            ],
            [
              2.738675,
              46.98834
            ],
            [
              2.736465,
              46.988948
            ],
            [
              2.732752,
              46.989753
            ],
            [
              2.732388,
              46.989958
            ],
            [
              2.730199,
              46.991941
            ],
            [
              2.728783,
              46.99298
            ],
            [
              2.727806,
              46.992058
            ],
            [
              2.72551,
              46.993038
            ],
            [
              2.726569,
              46.994369
            ],
            [
              2.725972,
              46.994495
            ],
            [
              2.72757,
              46.996756
            ],
            [
              2.727663,
              46.999023
            ],
            [
              2.725328,
              46.999295
            ],
            [
              2.726004,
              47.000758
            ],
            [
              2.726068,
              47.001088
            ],
            [
              2.726219,
              47.002844
            ],
            [
              2.726315,
              47.003173
            ],
            [
              2.72698,
              47.003861
            ],
            [
              2.728096,
              47.005222
            ],
            [
              2.72844,
              47.005683
            ],
            [
              2.72889,
              47.005939
            ],
            [
              2.728611,
              47.006341
            ],
            [
              2.727781,
              47.006098
            ],
            [
              2.728321,
              47.007365
            ],
            [
              2.72977,
              47.009875
            ],
            [
              2.731379,
              47.009597
            ],
            [
              2.725382,
              47.012325
            ],
            [
              2.72521,
              47.012413
            ],
            [
              2.724899,
              47.01245
            ],
            [
              2.724223,
              47.01245
            ],
            [
              2.723869,
              47.01253
            ],
            [
              2.722346,
              47.013167
            ],
            [
              2.721455,
              47.013474
            ],
            [
              2.7124,
              47.015888
            ],
            [
              2.709997,
              47.016524
            ],
            [
              2.702164,
              47.01806
            ],
            [
              2.697054,
              47.019083
            ],
            [
              2.696993,
              47.019018
            ],
            [
              2.696904,
              47.018966
            ],
            [
              2.696807,
              47.018952
            ],
            [
              2.696671,
              47.018967
            ],
            [
              2.696532,
              47.01904
            ],
            [
              2.69635,
              47.019136
            ],
            [
              2.695974,
              47.019238
            ],
            [
              2.694161,
              47.019626
            ],
            [
              2.687616,
              47.020554
            ],
            [
              2.684902,
              47.020979
            ],
            [
              2.68399,
              47.021176
            ],
            [
              2.675761,
              47.023678
            ],
            [
              2.666416,
              47.026479
            ],
            [
              2.658065,
              47.028971
            ],
            [
              2.654448,
              47.030078
            ],
            [
              2.653327,
              47.030384
            ],
            [
              2.65319,
              47.030153
            ],
            [
              2.652903,
              47.03019
            ],
            [
              2.652905,
              47.030112
            ],
            [
              2.652833,
              47.029704
            ],
            [
              2.650695,
              47.029922
            ],
            [
              2.649686,
              47.02963
            ],
            [
              2.645535,
              47.030155
            ],
            [
              2.645921,
              47.031591
            ],
            [
              2.638678,
              47.032547
            ],
            [
              2.634794,
              47.033059
            ],
            [
              2.62746,
              47.034018
            ],
            [
              2.616162,
              47.035481
            ],
            [
              2.604382,
              47.037016
            ],
            [
              2.582631,
              47.039808
            ],
            [
              2.574127,
              47.040965
            ],
            [
              2.568469,
              47.041673
            ],
            [
              2.568207,
              47.041648
            ],
            [
              2.565976,
              47.041562
            ],
            [
              2.565266,
              47.040825
            ],
            [
              2.564649,
              47.040301
            ],
            [
              2.56401,
              47.03947
            ],
            [
              2.55863,
              47.039691
            ],
            [
              2.557458,
              47.040018
            ],
            [
              2.55689,
              47.040098
            ],
            [
              2.556546,
              47.039766
            ],
            [
              2.55607,
              47.040098
            ],
            [
              2.555582,
              47.040577
            ],
            [
              2.555186,
              47.041073
            ],
            [
              2.553534,
              47.041848
            ],
            [
              2.538317,
              47.047433
            ],
            [
              2.533854,
              47.051036
            ],
            [
              2.535639,
              47.0521
            ],
            [
              2.534697,
              47.052251
            ],
            [
              2.534097,
              47.05234
            ],
            [
              2.533577,
              47.052458
            ],
            [
              2.532892,
              47.052685
            ],
            [
              2.532768,
              47.052741
            ],
            [
              2.532638,
              47.053081
            ],
            [
              2.53255,
              47.053072
            ],
            [
              2.532457,
              47.053087
            ],
            [
              2.531461,
              47.0533
            ],
            [
              2.531338,
              47.053337
            ],
            [
              2.531004,
              47.053446
            ],
            [
              2.530391,
              47.053701
            ],
            [
              2.53006,
              47.053857
            ],
            [
              2.525331,
              47.05454
            ],
            [
              2.52516,
              47.054612
            ],
            [
              2.52425,
              47.054992
            ],
            [
              2.519535,
              47.056969
            ],
            [
              2.514159,
              47.059392
            ],
            [
              2.507035,
              47.061775
            ],
            [
              2.505161,
              47.062302
            ],
            [
              2.502071,
              47.062858
            ],
            [
              2.490699,
              47.06562
            ],
            [
              2.481694,
              47.068776
            ],
            [
              2.472009,
              47.072255
            ],
            [
              2.468626,
              47.072927
            ],
            [
              2.466507,
              47.072972
            ],
            [
              2.465795,
              47.073003
            ],
            [
              2.465614,
              47.073011
            ],
            [
              2.461013,
              47.073214
            ],
            [
              2.452523,
              47.073582
            ],
            [
              2.451329,
              47.073618
            ],
            [
              2.448694,
              47.07371
            ],
            [
              2.447164,
              47.073771
            ],
            [
              2.44573,
              47.074202
            ],
            [
              2.44381,
              47.074523
            ],
            [
              2.443815,
              47.074316
            ],
            [
              2.44253,
              47.074587
            ],
            [
              2.439383,
              47.075063
            ],
            [
              2.437483,
              47.072056
            ],
            [
              2.437289,
              47.072109
            ],
            [
              2.43714,
              47.071929
            ],
            [
              2.43694,
              47.071881
            ],
            [
              2.435355,
              47.069379
            ],
            [
              2.435005,
              47.068815
            ],
            [
              2.434691,
              47.068203
            ],
            [
              2.434568,
              47.067963
            ],
            [
              2.434496,
              47.067784
            ],
            [
              2.434213,
              47.067079
            ],
            [
              2.434099,
              47.066713
            ],
            [
              2.434137,
              47.066589
            ],
            [
              2.434608,
              47.066313
            ],
            [
              2.434567,
              47.066267
            ],
            [
              2.434836,
              47.06617
            ],
            [
              2.434789,
              47.066117
            ],
            [
              2.43474,
              47.06606
            ],
            [
              2.434708,
              47.066023
            ],
            [
              2.433799,
              47.065555
            ],
            [
              2.43269,
              47.064524
            ],
            [
              2.432067,
              47.063945
            ],
            [
              2.431852,
              47.06346
            ],
            [
              2.431826,
              47.063401
            ],
            [
              2.431741,
              47.06294
            ],
            [
              2.431676,
              47.061826
            ],
            [
              2.431476,
              47.060387
            ]
          ]
        ]
      },
      "properties": {
        "name": "Champ de tir du polygone",
        "kind": "zone"
      }
    },
    {
      "type": "Feature",
      "geometry": {
        "type": "LineString",
        "coordinates": [
          [
            2.5149599,
            47.0636087
          ],
          [
            2.5145522,
            47.0629729
          ],
          [
            2.5142894,
            47.06256
          ],
          [
            2.5141901,
            47.0623626
          ],
          [
            2.513828,
            47.0617524
          ],
          [
            2.5136698,
            47.0614545
          ],
          [
            2.5133023,
            47.0606067
          ],
          [
            2.5129241,
            47.0597808
          ],
          [
            2.512908,
            47.0597242
          ],
          [
            2.5128732,
            47.0595616
          ],
          [
            2.5128061,
            47.0594063
          ],
          [
            2.5125432,
            47.0588654
          ],
          [
            2.5123153,
            47.058372
          ],
          [
            2.5120444,
            47.0577672
          ],
          [
            2.5117413,
            47.0571167
          ],
          [
            2.5117118,
            47.0570381
          ],
          [
            2.5115776,
            47.0567275
          ],
          [
            2.5114811,
            47.0565649
          ],
          [
            2.5111378,
            47.055759
          ],
          [
            2.5108132,
            47.0550591
          ],
          [
            2.5106335,
            47.0546498
          ],
          [
            2.5103465,
            47.0540248
          ],
          [
            2.5100649,
            47.0534144
          ],
          [
            2.5096626,
            47.0525592
          ],
          [
            2.5095419,
            47.052307
          ],
          [
            2.5092173,
            47.0515906
          ],
          [
            2.5088472,
            47.0507792
          ],
          [
            2.5083697,
            47.0497412
          ],
          [
            2.5079593,
            47.0488384
          ],
          [
            2.5078145,
            47.0485277
          ],
          [
            2.5076133,
            47.0480744
          ],
          [
            2.5071708,
            47.0470912
          ],
          [
            2.5068918,
            47.0464771
          ],
          [
            2.5067819,
            47.0462577
          ],
          [
            2.5066585,
            47.046011
          ],
          [
            2.5036882,
            47.041089
          ],
          [
            2.5030874,
            47.04008
          ],
          [
            2.502272,
            47.0389394
          ],
          [
            2.5018429,
            47.0383106
          ],
          [
            2.5014566,
            47.0377841
          ],
          [
            2.5010918,
            47.0372723
          ],
          [
            2.5006841,
            47.0367166
          ],
          [
            2.5001477,
            47.036117
          ],
          [
            2.497723,
            47.033938
          ],
          [
            2.4970793,
            47.0333383
          ],
          [
            2.496196,
            47.0325711
          ],
          [
            2.4933957,
            47.0306844
          ],
          [
            2.4906599,
            47.0288927
          ]
        ]
      },
      "properties": {
        "name": "SOYE – OSMOY",
        "route_id": "CV01",
        "kind": "route"
      }
    },
    {
      "type": "Feature",
      "geometry": {
        "type": "LineString",
        "coordinates": [
          [
            2.4919864,
            47.0268419
          ],
          [
            2.4924692,
            47.0269443
          ],
          [
            2.4929842,
            47.0271417
          ],
          [
            2.4937781,
            47.0274562
          ],
          [
            2.4944218,
            47.0276463
          ],
          [
            2.4952158,
            47.0278657
          ],
          [
            2.4959775,
            47.0280266
          ],
          [
            2.4968895,
            47.028246
          ],
          [
            2.4978014,
            47.0284727
          ],
          [
            2.4981662,
            47.028619
          ],
          [
            2.4990245,
            47.02897
          ],
          [
            2.5004729,
            47.0295697
          ],
          [
            2.5016853,
            47.0301035
          ],
          [
            2.502447,
            47.0303961
          ],
          [
            2.5031766,
            47.0305496
          ],
          [
            2.5038525,
            47.0306228
          ],
          [
            2.5051507,
            47.0306593
          ],
          [
            2.5071033,
            47.0307105
          ],
          [
            2.5108579,
            47.0308245
          ],
          [
            2.5117698,
            47.0308391
          ],
          [
            2.5133792,
            47.0307879
          ],
          [
            2.5135616,
            47.0308025
          ],
          [
            2.5139049,
            47.0308464
          ],
          [
            2.5188187,
            47.0316947
          ],
          [
            2.5211898,
            47.0321261
          ],
          [
            2.5235875,
            47.0327886
          ],
          [
            2.5251754,
            47.03322
          ],
          [
            2.5268062,
            47.0336953
          ],
          [
            2.5277396,
            47.034039
          ],
          [
            2.5291451,
            47.0346313
          ],
          [
            2.530572,
            47.0351797
          ],
          [
            2.5320311,
            47.0356916
          ],
          [
            2.5331791,
            47.0360352
          ],
          [
            2.5344555,
            47.0363813
          ],
          [
            2.535464,
            47.0365714
          ],
          [
            2.5374059,
            47.0368785
          ],
          [
            2.5384681,
            47.0370467
          ],
          [
            2.5400345,
            47.0371491
          ],
          [
            2.5419442,
            47.0372807
          ],
          [
            2.5444655,
            47.0374416
          ],
          [
            2.5467722,
            47.037617
          ],
          [
            2.5483601,
            47.0377779
          ],
          [
            2.5494729,
            47.0378733
          ],
          [
            2.5502883,
            47.0380196
          ],
          [
            2.5515007,
            47.0383267
          ],
          [
            2.5521552,
            47.0385021
          ]
        ]
      },
      "properties": {
        "name": "SOYE – SAVIGNY",
        "route_id": "ROUTE DGATT",
        "kind": "route"
      }
    },
    {
      "type": "Feature",
      "geometry": {
        "type": "LineString",
        "coordinates": [
          [
            2.5616021,
            47.0448118
          ],
          [
            2.560267,
            47.0439205
          ],
          [
            2.5597199,
            47.0435257
          ],
          [
            2.559001,
            47.0430358
          ],
          [
            2.5584539,
            47.0428092
          ],
          [
            2.5580462,
            47.0425606
          ],
          [
            2.5576277,
            47.0422535
          ],
          [
            2.5573917,
            47.0419245
          ],
          [
            2.5571664,
            47.0414493
          ],
          [
            2.5568572,
            47.0412369
          ],
          [
            2.5564368,
            47.0410399
          ],
          [
            2.5557824,
            47.0407547
          ],
          [
            2.555364,
            47.0405427
          ],
          [
            2.5521552,
            47.0385021
          ],
          [
            2.5510474,
            47.0377888
          ],
          [
            2.5486848,
            47.0362814
          ],
          [
            2.5458631,
            47.0354735
          ],
          [
            2.5455359,
            47.0352541
          ],
          [
            2.5451067,
            47.0348446
          ],
          [
            2.5445888,
            47.0342891
          ],
          [
            2.5440523,
            47.0336164
          ],
          [
            2.5437305,
            47.0329729
          ],
          [
            2.5435159,
            47.0325414
          ],
          [
            2.5433871,
            47.0320515
          ],
          [
            2.5431404,
            47.0306401
          ],
          [
            2.5428936,
            47.029492
          ],
          [
            2.5426576,
            47.0281098
          ],
          [
            2.5422008,
            47.0260782
          ],
          [
            2.541879,
            47.0244692
          ],
          [
            2.5416429,
            47.0231527
          ],
          [
            2.5414498,
            47.0223628
          ],
          [
            2.5413702,
            47.0222081
          ],
          [
            2.5411798,
            47.0219558
          ],
          [
            2.5410511,
            47.0217967
          ],
          [
            2.5369111,
            47.0162822
          ],
          [
            2.5338105,
            47.0120028
          ],
          [
            2.5326947,
            47.0106202
          ],
          [
            2.5319034,
            47.0097022
          ],
          [
            2.5308091,
            47.0091974
          ],
          [
            2.5298971,
            47.0087584
          ],
          [
            2.5290818,
            47.0083634
          ],
          [
            2.5285882,
            47.0081146
          ],
          [
            2.5277621,
            47.0076245
          ],
          [
            2.5267751,
            47.0070685
          ],
          [
            2.5257022,
            47.0064905
          ],
          [
            2.5250155,
            47.0060808
          ],
          [
            2.5244791,
            47.0057515
          ],
          [
            2.5239641,
            47.0053638
          ],
          [
            2.523297,
            47.0048167
          ],
          [
            2.5229966,
            47.004546
          ],
          [
            2.5225567,
            47.0040119
          ],
          [
            2.5220954,
            47.003529
          ],
          [
            2.5216877,
            47.0030461
          ],
          [
            2.5213443,
            47.0027607
          ],
          [
            2.5207864,
            47.0024315
          ],
          [
            2.5201534,
            47.0020437
          ],
          [
            2.519617,
            47.001773
          ],
          [
            2.5188982,
            47.001473
          ],
          [
            2.5184368,
            47.0012388
          ],
          [
            2.5180291,
            47.0009827
          ],
          [
            2.5176107,
            47.0007047
          ],
          [
            2.5170957,
            47.0003169
          ],
          [
            2.5165271,
            46.9999657
          ],
          [
            2.5160443,
            46.9996364
          ],
          [
            2.5152861,
            46.9992043
          ],
          [
            2.5143205,
            46.9986116
          ],
          [
            2.5136553,
            46.9981287
          ],
          [
            2.5130116,
            46.9975799
          ],
          [
            2.5124644,
            46.9969725
          ],
          [
            2.5120353,
            46.9964823
          ],
          [
            2.511531,
            46.9958749
          ],
          [
            2.5111126,
            46.9953992
          ],
          [
            2.5108444,
            46.9950846
          ],
          [
            2.5105011,
            46.9946894
          ]
        ]
      },
      "properties": {
        "name": "SAINT-JUST – SAVIGNY",
        "route_id": "D46",
        "kind": "route"
      }
    },
    {
      "type": "Feature",
      "geometry": {
        "type": "LineString",
        "coordinates": [
          [
            2.5826812,
            47.0399137
          ],
          [
            2.5825685,
            47.0394786
          ],
          [
            2.5827134,
            47.0387803
          ],
          [
            2.5828797,
            47.0380309
          ],
          [
            2.5831184,
            47.0369038
          ],
          [
            2.5831613,
            47.0367064
          ],
          [
            2.5832257,
            47.035785
          ],
          [
            2.5832686,
            47.0344469
          ],
          [
            2.5833008,
            47.0331599
          ],
          [
            2.5834235,
            47.0294356
          ],
          [
            2.5834664,
            47.0283094
          ],
          [
            2.5835522,
            47.0272563
          ],
          [
            2.5835844,
            47.0264957
          ],
          [
            2.5836488,
            47.025662
          ],
          [
            2.5837454,
            47.0238555
          ],
          [
            2.5838097,
            47.0229925
          ],
          [
            2.5838634,
            47.0219978
          ],
          [
            2.5839273,
            47.0205416
          ],
          [
            2.5839756,
            47.0202929
          ],
          [
            2.5842707,
            47.0196456
          ],
          [
            2.5846086,
            47.0188666
          ],
          [
            2.5854669,
            47.0169392
          ],
          [
            2.585703,
            47.0164272
          ],
          [
            2.586234,
            47.0151837
          ],
          [
            2.5864218,
            47.0147923
          ],
          [
            2.5867061,
            47.0143242
          ],
          [
            2.5871084,
            47.013717
          ],
          [
            2.5873928,
            47.0132744
          ],
          [
            2.5876395,
            47.0127624
          ],
          [
            2.5879131,
            47.0119687
          ],
          [
            2.5879775,
            47.011709
          ]
        ]
      },
      "properties": {
        "name": "CROSSES – SAVIGNY",
        "route_id": "D66",
        "kind": "route"
      }
    },
    {
      "type": "Feature",
      "geometry": {
        "type": "LineString",
        "coordinates": [
          [
            2.6528054,
            47.0306239
          ],
          [
            2.6527491,
            47.0301248
          ],
          [
            2.6526901,
            47.0297189
          ],
          [
            2.6523545,
            47.0262183
          ],
          [
            2.6521161,
            47.0242993
          ],
          [
            2.6520893,
            47.0241018
          ],
          [
            2.6521376,
            47.0237288
          ],
          [
            2.6535635,
            47.0191798
          ],
          [
            2.6540142,
            47.0177315
          ],
          [
            2.6540142,
            47.0167075
          ],
          [
            2.6537352,
            47.0143228
          ],
          [
            2.6535206,
            47.0130646
          ],
          [
            2.6531344,
            47.0121721
          ],
          [
            2.6523619,
            47.0109724
          ],
          [
            2.6514661,
            47.0102829
          ],
          [
            2.6511013,
            47.0097269
          ],
          [
            2.6500713,
            47.0076053
          ],
          [
            2.6488912,
            47.0052349
          ],
          [
            2.6485693,
            47.0045472
          ],
          [
            2.6483762,
            47.0037716
          ],
          [
            2.6480114,
            47.0022498
          ],
          [
            2.6479041,
            47.0016498
          ],
          [
            2.6477539,
            47.0012693
          ],
          [
            2.6474535,
            47.0007279
          ],
          [
            2.6467883,
            46.9999522
          ],
          [
            2.6442348,
            46.9967912
          ],
          [
            2.643913,
            46.996396
          ],
          [
            2.643634,
            46.9960887
          ],
          [
            2.6430761,
            46.9956204
          ],
          [
            2.6425397,
            46.9950642
          ],
          [
            2.6420891,
            46.9944203
          ],
          [
            2.641853,
            46.9937763
          ],
          [
            2.6415097,
            46.9932494
          ],
          [
            2.641381,
            46.9927518
          ],
          [
            2.6412522,
            46.9917565
          ],
          [
            2.6410162,
            46.9907759
          ],
          [
            2.6408016,
            46.9901611
          ],
          [
            2.6407372,
            46.9897952
          ],
          [
            2.6409089,
            46.9894878
          ],
          [
            2.6413381,
            46.988917
          ],
          [
            2.6414668,
            46.9886389
          ],
          [
            2.6415955,
            46.9880534
          ],
          [
            2.6417458,
            46.9873362
          ],
          [
            2.641853,
            46.9867946
          ],
          [
            2.6418745,
            46.9863262
          ],
          [
            2.6418745,
            46.9856821
          ]
        ]
      },
      "properties": {
        "name": "JUSSY – AVORD",
        "route_id": "D36",
        "kind": "route"
      }
    },
    {
      "type": "Feature",
      "geometry": {
        "type": "LineString",
        "coordinates": [
          [
            2.7112928,
            47.0162806
          ],
          [
            2.7109119,
            47.0157319
          ],
          [
            2.7108261,
            47.0154083
          ],
          [
            2.71081,
            47.0149767
          ],
          [
            2.7108824,
            47.0140312
          ],
          [
            2.7109989,
            47.0122049
          ],
          [
            2.7111062,
            47.0108004
          ],
          [
            2.7112671,
            47.0085325
          ],
          [
            2.7112671,
            47.0080789
          ],
          [
            2.7111706,
            47.0073912
          ],
          [
            2.7110526,
            47.0069376
          ],
          [
            2.7108273,
            47.0062718
          ],
          [
            2.7099368,
            47.0042452
          ],
          [
            2.7092501,
            47.0025551
          ],
          [
            2.7081343,
            47.0000015
          ],
          [
            2.7073618,
            46.9981942
          ],
          [
            2.7070614,
            46.9974697
          ],
          [
            2.7067825,
            46.9968624
          ],
          [
            2.7062139,
            46.995494
          ],
          [
            2.7055487,
            46.9938987
          ],
          [
            2.7053663,
            46.9935768
          ],
          [
            2.7050122,
            46.9926693
          ],
          [
            2.7045616,
            46.9916155
          ],
          [
            2.7039501,
            46.9902982
          ],
          [
            2.7029737,
            46.9891199
          ],
          [
            2.7018794,
            46.9879563
          ],
          [
            2.7007636,
            46.9868072
          ],
          [
            2.6996907,
            46.9856728
          ],
          [
            2.6988431,
            46.9847945
          ],
          [
            2.6975986,
            46.9834917
          ],
          [
            2.6937362,
            46.9794
          ],
          [
            2.6911935,
            46.9767136
          ],
          [
            2.6905605,
            46.9760767
          ],
          [
            2.6896807,
            46.975147
          ],
          [
            2.688801,
            46.9741954
          ],
          [
            2.6879963,
            46.973273
          ],
          [
            2.6874599,
            46.9727605
          ],
          [
            2.6872131,
            46.972475
          ],
          [
            2.6870522,
            46.9721675
          ],
          [
            2.6873311,
            46.9719699
          ]
        ]
      },
      "properties": {
        "name": "RAYMOND – BAUGY",
        "route_id": "D10",
        "kind": "route"
      }
    },
    {
      "type": "Feature",
      "geometry": {
        "type": "LineString",
        "coordinates": [
          [
            2.7300276,
            46.9545495
          ],
          [
            2.7303978,
            46.9549266
          ],
          [
            2.7307357,
            46.9553038
          ],
          [
            2.7310737,
            46.9559958
          ],
          [
            2.7312775,
            46.9563656
          ],
          [
            2.7315672,
            46.9568306
          ],
          [
            2.7319193,
            46.9573295
          ],
          [
            2.7322599,
            46.957734
          ],
          [
            2.7325147,
            46.9580361
          ],
          [
            2.7325981,
            46.9581984
          ],
          [
            2.7326302,
            46.9583375
          ],
          [
            2.7326115,
            46.9584583
          ],
          [
            2.732523,
            46.9586927
          ],
          [
            2.7323513,
            46.9592126
          ],
          [
            2.7322762,
            46.9595421
          ],
          [
            2.7321474,
            46.9600034
          ],
          [
            2.7321206,
            46.9602268
          ],
          [
            2.7321421,
            46.9604904
          ],
          [
            2.7321153,
            46.9605599
          ],
          [
            2.7320294,
            46.9606441
          ],
          [
            2.7319168,
            46.960732
          ],
          [
            2.730109,
            46.961651
          ],
          [
            2.72983,
            46.9618011
          ],
          [
            2.7295296,
            46.9619548
          ],
          [
            2.7293633,
            46.9620903
          ],
          [
            2.7293311,
            46.9621818
          ],
          [
            2.7293472,
            46.9622697
          ],
          [
            2.7293848,
            46.9623576
          ],
          [
            2.7297388,
            46.9627859
          ],
          [
            2.7305649,
            46.9638
          ],
          [
            2.731257,
            46.9646311
          ],
          [
            2.7326678,
            46.9660698
          ],
          [
            2.7332793,
            46.9666921
          ],
          [
            2.7335529,
            46.9669228
          ],
          [
            2.73373,
            46.9670289
          ],
          [
            2.7340089,
            46.9672632
          ],
          [
            2.7343254,
            46.9675488
          ],
          [
            2.7351623,
            46.9683468
          ],
          [
            2.7359669,
            46.9691228
          ],
          [
            2.7360796,
            46.969251
          ],
          [
            2.7362888,
            46.9695328
          ],
          [
            2.736895,
            46.9704004
          ],
          [
            2.7379249,
            46.9719049
          ],
          [
            2.7384614,
            46.9726662
          ],
          [
            2.7389281,
            46.9732519
          ],
          [
            2.7398347,
            46.9743866
          ],
          [
            2.7404194,
            46.9751296
          ],
          [
            2.7410953,
            46.9760081
          ],
          [
            2.7415137,
            46.9765278
          ],
          [
            2.7419161,
            46.9770402
          ],
          [
            2.7420126,
            46.9771647
          ],
          [
            2.7421092,
            46.9773513
          ],
          [
            2.7422916,
            46.9777832
          ],
          [
            2.7425598,
            46.9782993
          ],
          [
            2.7429031,
            46.9790496
          ],
          [
            2.7431445,
            46.9796205
          ],
          [
            2.7433323,
            46.9800231
          ],
          [
            2.7435522,
            46.9805026
          ],
          [
            2.7439384,
            46.9813443
          ],
          [
            2.7445124,
            46.9825447
          ],
          [
            2.744558,
            46.9827881
          ],
          [
            2.7445312,
            46.9829583
          ],
          [
            2.7443998,
            46.9832181
          ],
          [
            2.7441181,
            46.9836316
          ],
          [
            2.7439546,
            46.9842416
          ],
          [
            2.7438768,
            46.984441
          ],
          [
            2.7437588,
            46.9846387
          ],
          [
            2.7435764,
            46.9848546
          ],
          [
            2.743445,
            46.9850357
          ],
          [
            2.7433806,
            46.9851858
          ],
          [
            2.7433967,
            46.9852827
          ],
          [
            2.7434691,
            46.9854767
          ],
          [
            2.7436944,
            46.9857749
          ],
          [
            2.7440941,
            46.9862928
          ],
          [
            2.7441477,
            46.9863806
          ],
          [
            2.7442818,
            46.9867941
          ],
          [
            2.7442953,
            46.9873339
          ],
          [
            2.744416,
            46.987934
          ],
          [
            2.7445152,
            46.9884189
          ],
          [
            2.7445715,
            46.9887226
          ],
          [
            2.7445045,
            46.9893867
          ],
          [
            2.7444401,
            46.9898167
          ],
          [
            2.7443248,
            46.9905046
          ],
          [
            2.7441383,
            46.9915042
          ],
          [
            2.7441866,
            46.9919323
          ],
          [
            2.7443421,
            46.9923751
          ],
          [
            2.7444441,
            46.9929422
          ],
          [
            2.7444387,
            46.993513
          ],
          [
            2.7444387,
            46.9943326
          ],
          [
            2.7444387,
            46.9948888
          ],
          [
            2.744487,
            46.9951815
          ],
          [
            2.7446908,
            46.9957084
          ],
          [
            2.7448732,
            46.9961181
          ],
          [
            2.7451414,
            46.996529
          ],
          [
            2.7452863,
            46.9967083
          ]
        ]
      },
      "properties": {
        "name": "CORNUSSE – BENGY",
        "route_id": "D102",
        "kind": "route"
      }
    },
    {
      "type": "Feature",
      "geometry": {
        "type": "LineString",
        "coordinates": [
          [
            2.5879775,
            47.011709
          ],
          [
            2.5883467,
            47.0118055
          ],
          [
            2.5887732,
            47.0120012
          ],
          [
            2.589842,
            47.0123198
          ],
          [
            2.5927011,
            47.0131733
          ],
          [
            2.6414255,
            47.027295
          ],
          [
            2.6527659,
            47.0306297
          ]
        ]
      },
      "properties": {
        "name": "CROSSES – AVORD",
        "route_id": "D71",
        "kind": "route"
      }
    },
    {
      "type": "Feature",
      "geometry": {
        "type": "LineString",
        "coordinates": [
          [
            2.5845297,
            47.0053571
          ],
          [
            2.5846437,
            47.005508
          ],
          [
            2.5848395,
            47.0056378
          ],
          [
            2.585036,
            47.0057966
          ],
          [
            2.585146,
            47.0059502
          ],
          [
            2.5854893,
            47.0065995
          ],
          [
            2.5866524,
            47.0088644
          ],
          [
            2.5872961,
            47.0101227
          ],
          [
            2.5879601,
            47.0113808
          ],
          [
            2.5879775,
            47.011709
          ]
        ]
      },
      "properties": {
        "name": "ROUTE ACCES CROSSES",
        "route_id": "ROUTE_ACCES_CROSSES",
        "kind": "access_route"
      }
    }
  ]
}